TDRS 3                  
1 19548U 88091B   24171.36388069 -.00000287  00000+0  00000+0 0  9997
2 19548  13.1609 345.9076 0034005 343.0388  21.3058  1.00271024118099
HST                     
1 20580U 90037B   24171.55309666  .00005465  00000+0  25371-3 0  9999
2 20580  28.4698 329.2805 0003096  64.2948 295.7964 15.17786998677399
TDRS 5                  
1 21639U 91054B   24171.43281267 -.00000290  00000+0  00000+0 0  9998
2 21639  14.1625 359.0918 0002407 218.8238 143.9500  1.00268967120422
TDRS 6                  
1 22314U 93003B   24171.36448985 -.00000284  00000+0  00000+0 0  9992
2 22314  14.1628   2.3990 0010923 153.3738 197.6643  1.00275841115106
TDRS 7                  
1 23613U 95035B   24171.60926344 -.00000192  00000+0  00000+0 0  9997
2 23613  13.6803 353.2159 0028400  70.3042 149.0475  1.00273683105956
ISS (ZARYA)             
1 25544U 98067A   24171.53736493  .00014832  00000+0  27136-3 0  9994
2 25544  51.6394 303.6364 0010883 344.1821 109.8598 15.49525561458918
LANDSAT 7               
1 25682U 99020A   24171.62740316  .00000561  00000+0  12401-3 0  9999
2 25682  97.8871 198.3009 0001433  80.6133  29.2597 14.60704942339496
TERRA                   
1 25994U 99068A   24171.63546395  .00000597  00000+0  13423-3 0  9993
2 25994  98.0480 235.0513 0002256  35.3018  84.5451 14.59817936303404
TDRS 8                  
1 26388U 00034A   24171.41256407  .00000107  00000+0  00000+0 0  9994
2 26388  11.5379  37.2653 0000835 262.4686 309.1746  1.00273331 87882
TIMED                   
1 26998U 01055B   24171.59571715  .00001681  00000+0  17189-3 0  9994
2 26998  74.0715 256.3786 0002311 290.8724  69.2211 14.91453030222182
AQUA                    
1 27424U 02022A   24171.57774176  .00001143  00000+0  25130-3 0  9996
2 27424  98.3306 120.9559 0002239  89.1296  26.1762 14.59391143177023
TDRS 10                 
1 27566U 02055A   24171.41353229  .00000101  00000+0  00000+0 0  9992
2 27566   9.5677  45.3948 0006424 345.7472 214.8695  1.00265796 78931
SORCE                   
1 27651U 03004A   24171.43171693  .00002851  00000+0  26632-3 0  9994
2 27651  39.9939  70.7087 0022416 254.6399 105.1915 14.95220115162581
AURA                    
1 28376U 04026A   24171.56552369  .00001095  00000+0  24499-3 0  9999
2 28376  98.2512 116.3852 0002498  76.0221 284.1255 14.58626807 60024
SWIFT                   
1 28485U 04047A   24171.34099756  .00009133  00000+0  39620-3 0  9998
2 28485  20.5544 165.7877 0007978 305.5501  54.4192 15.19224812 74506
THEMIS A                
1 30580U 07004A   24169.46794005 -.00000187  00000+0  00000+0 0  9999
2 30580  10.0284 265.0138 8346117 320.5203   2.5928  0.87834221 34865
THEMIS D                
1 30797U 07004D   24169.51827972 -.00000237  00000+0  00000+0 0  9991
2 30797   5.8785 261.8188 8338470 327.5803   6.4973  0.87835434 34666
THEMIS E                
1 30798U 07004E   24168.29094215 -.00000326  00000+0  00000+0 0  9991
2 30798   7.5712 281.0370 8331017 309.5542 353.6724  0.87833082 59488
FGRST (GLAST)           
1 33053U 08029A   24171.47353086  .00002673  00000+0  11660-3 0  9998
2 33053  25.5809 193.6127 0010564  61.1304 299.0291 15.16856931884923
WISE                    
1 36119U 09071A   24171.55649364  .00046662  00000+0  47321-3 0  9997
2 36119  97.1435 208.1809 0003823 126.0465 234.1150 15.65100672808611
TDRS 11                 
1 39070U 13004A   24171.57668531  .00000100  00000+0  00000+0 0  9992
2 39070   2.7469  11.7883 0006039  52.5527 237.1585  1.00275393 39396
TDRS 12                 
1 39504U 14004A   24171.50854435 -.00000251  00000+0  00000+0 0  9996
2 39504   3.5532   3.4807 0003908 181.3965 225.2995  1.00264889 36984
GPM-CORE                
1 39574U 14009C   24171.59406675  .00009551  00000+0  20636-3 0  9998
2 39574  64.9848 225.0392 0010073 262.4733  97.5263 15.44981024585424
MMS 1                   
1 40482U 15011A   24171.58334491 -.00000557  00000+0  00000+0 0  9994
2 40482  47.9746  11.2160 9098189 146.6300  12.6423  0.28468999  1387
MMS 2                   
1 40483U 15011B   24171.58334491 -.00000557  00000+0  00000+0 0  9995
2 40483  47.9744  11.2161 9098158 146.6297  12.4834  0.28469895  1388
MMS 3                   
1 40484U 15011C   24171.58334491 -.00000557  00000+0  00000+0 0  9996
2 40484  47.9744  11.2162 9098175 146.6298  12.5622  0.28469421  1381
MMS 4                   
1 40485U 15011D   24171.58334491 -.00000557  00000+0  00000+0 0  9997
2 40485  47.9745  11.2159 9098165 146.6296  12.4039  0.28470372  1384
TDRS 13                 
1 42915U 17047A   24171.58602789 -.00000077  00000+0  00000+0 0  9993
2 42915   3.6383 344.6955 0017996 114.9231   8.1863  1.00272381 25057
NOAA 20 (JPSS-1)        
1 43013U 17073A   24171.59741458  .00000089  00000+0  62742-4 0  9998
2 43013  98.7066 109.4789 0001036 136.8175 223.3083 14.19597872341246
